H1 CPF 01  gfz 2022 08 23 12  7351 terrasarx 
H2 0702601  6201 31698    2022 08 23 12 59 42 2022 08 28 00 00 42   120 1 1  0 0 0
H9
10 0 59816  23022.000000  0   -6544008.935    891071.685   1951592.343
10 0 59816  23142.000000  0   -6206627.473   1024797.501   2799275.686
10 0 59816  23262.000000  0   -5758592.403   1133731.323   3597659.768
10 0 59816  23382.000000  0   -5208221.803   1214107.831   4332695.754
10 0 59816  23502.000000  0   -4565690.252   1262825.968   4991463.629
10 0 59816  23622.000000  0   -3842830.763   1277532.812   5562398.854
10 0 59816  23742.000000  0   -3052908.268   1256690.314   6035492.758
10 0 59816  23862.000000  0   -2210368.555   1199623.255   6402464.515
10 0 59816  23982.000000  0   -1330566.865   1106548.184   6656900.700
10 0 59816  24102.000000  0    -429483.886    978581.768   6794359.859
10 0 59816  24222.000000  0     476564.806    817729.206   6812444.341
10 0 59816  24342.000000  0    1371223.058    626852.677   6710839.213
10 0 59816  24462.000000  0    2238388.017    409620.802   6491317.455
10 0 59816  24582.000000  0    3062499.030    170439.337   6157711.791
10 0 59816  24702.000000  0    3828818.538    -85636.085   5715852.696
10 0 59816  24822.000000  0    4523698.778   -353003.749   5173471.770
10 0 59816  24942.000000  0    5134830.210   -625633.999   4540072.630
10 0 59816  25062.000000  0    5651467.306   -897200.035   3826769.656
10 0 59816  25182.000000  0    6064627.295  -1161218.787   3046096.799
10 0 59816  25302.000000  0    6367256.393  -1411198.558   2211787.374
10 0 59816  25422.000000  0    6554359.161  -1640789.296   1338529.764
10 0 59816  25542.000000  0    6623087.554  -1843932.823    441703.972
10 0 59816  25662.000000  0    6572787.931  -2015010.094   -462897.081
10 0 59816  25782.000000  0    6405002.190  -2148978.998  -1359355.205
10 0 59816  25902.000000  0    6123425.229  -2241501.064  -2231915.727
10 0 59816  26022.000000  0    5733818.473  -2289053.087  -3065271.804
10 0 59816  26142.000000  0    5243883.254  -2289020.866  -3844836.745
10 0 59816  26262.000000  0    4663098.990  -2239773.514  -4556999.774
10 0 59816  26382.000000  0    4002529.534  -2140716.939  -5189361.471
10 0 59816  26502.000000  0    3274601.734  -1992325.316  -5730943.229
10 0 59816  26622.000000  0    2492864.351  -1796150.053  -6172367.235
10 0 59816  26742.000000  0    1671733.343  -1554806.750  -6506008.588
10 0 59816  26862.000000  0     826224.475  -1271940.242  -6726116.867
10 0 59816  26982.000000  0     -28318.967   -952169.391  -6828904.519
10 0 59816  27102.000000  0    -876499.477   -601012.271  -6812604.537
10 0 59816  27222.000000  0   -1703136.118   -224793.012  -6677497.630
10 0 59816  27342.000000  0   -2493530.366    169469.604  -6425907.281
10 0 59816  27462.000000  0   -3233721.222    574189.007  -6062163.407
10 0 59816  27582.000000  0   -3910727.918    981352.284  -5592536.749
10 0 59816  27702.000000  0   -4512778.411   1382673.875  -5025141.544
10 0 59816  27822.000000  0   -5029518.195   1769760.025  -4369807.686
10 0 59816  27942.000000  0   -5452196.270   2134281.815  -3637920.817
10 0 59816  28062.000000  0   -5773822.395   2468150.870  -2842233.100
10 0 59816  28182.000000  0   -5989294.039   2763695.526  -1996647.253
10 0 59816  28302.000000  0   -6095488.450   3013833.363  -1115975.722
10 0 59816  28422.000000  0   -6091316.627   3212235.925   -215679.231
10 0 59816  28542.000000  0   -5977737.209   3353480.612    688410.512
10 0 59816  28662.000000  0   -5757727.893   3433185.162   1580378.091
10 0 59816  28782.000000  0   -5436215.392   3448122.114   2444513.502
10 0 59816  28902.000000  0   -5019966.387   3396309.510   3265597.187
10 0 59816  29022.000000  0   -4517442.682   3277075.728   4029175.437
10 0 59816  29142.000000  0   -3938623.163   3091096.390   4721819.743
10 0 59816  29262.000000  0   -3294799.037   2840403.286   5331363.648
10 0 59816  29382.000000  0   -2598346.947   2528366.452   5847115.948
10 0 59816  29502.000000  0   -1862483.971   2159648.323   6260044.562
10 0 59816  29622.000000  0   -1101011.241   1740131.512   6562929.020
10 0 59816  29742.000000  0    -328052.205   1276822.488   6750478.909
10 0 59816  29862.000000  0     442208.888    777732.697   6819420.614
10 0 59816  29982.000000  0    1195786.671    251739.585   6768550.681
10 0 59816  30102.000000  0    1919147.276   -291570.586   6598755.447
10 0 59816  30222.000000  0    2599450.497   -842076.783   6312997.412
10 0 59816  30342.000000  0    3224778.184  -1389310.847   5916267.545
10 0 59816  30462.000000  0    3784346.176  -1922655.994   5415503.853
10 0 59816  30582.000000  0    4268694.328  -2431552.938   4819475.151
10 0 59816  30702.000000  0    4669851.672  -2905709.655   4138633.816
10 0 59816  30822.000000  0    4981474.849  -3335312.146   3384937.467
10 0 59816  30942.000000  0    5198955.827  -3711229.964   2571640.085
10 0 59816  31062.000000  0    5319494.433  -4025211.375   1713056.696
10 0 59816  31182.000000  0    5342134.361  -4270064.657    824307.519
10 0 59816  31302.000000  0    5267762.679  -4439819.953    -78954.869
10 0 59816  31422.000000  0    5099072.007  -4529868.148   -980829.394
10 0 59816  31542.000000  0    4840485.680  -4537072.009  -1865455.660
10 0 59816  31662.000000  0    4498048.133  -4459847.251  -2717301.044
10 0 59816  31782.000000  0    4079283.776  -4298211.658  -3521439.109
10 0 59816  31902.000000  0    3593028.561  -4053801.573  -4263814.020
10 0 59816  32022.000000  0    3049238.739  -3729855.524  -4931485.065
10 0 59816  32142.000000  0    2458781.631  -3331166.708  -5512847.083
10 0 59816  32262.000000  0    1833214.906  -2864006.116  -5997822.550
10 0 59816  32382.000000  0    1184559.821  -2336019.779  -6378025.934
10 0 59816  32502.000000  0     525070.258  -1756099.957  -6646899.311
10 0 59816  32622.000000  0    -132996.785  -1134232.669  -6799814.657
10 0 59816  32742.000000  0    -777604.366   -481326.387  -6834143.857
10 0 59816  32862.000000  0   -1397150.054    190975.726  -6749298.451
10 0 59816  32982.000000  0   -1980670.151    870498.281  -6546738.029
10 0 59816  33102.000000  0   -2518029.091   1544748.498  -6229947.729
10 0 59816  33222.000000  0   -3000092.286   2201140.163  -5804384.911
10 0 59816  33342.000000  0   -3418881.247   2827224.457  -5277395.843
10 0 59816  33462.000000  0   -3767708.763   3410924.906  -4658100.898
10 0 59816  33582.000000  0   -4041290.986   3940771.311  -3957247.103
10 0 59816  33702.000000  0   -4235831.995   4406127.760  -3187030.410
10 0 59816  33822.000000  0   -4349080.190   4797410.669  -2360891.273
10 0 59816  33942.000000  0   -4380356.092   5106291.144  -1493284.227
10 0 59816  34062.000000  0   -4330549.600   5325877.582   -599425.721
10 0 59816  34182.000000  0   -4202084.928   5450873.216    304977.723
10 0 59816  34302.000000  0   -3998853.450   5477701.522   1204011.946
10 0 59816  34422.000000  0   -3726117.411   5404599.809   2081844.565
10 0 59816  34542.000000  0   -3390384.864   5231673.951   2923014.413
10 0 59816  34662.000000  0   -2999258.517   4960914.690   3712711.610
10 0 59816  34782.000000  0   -2561265.407   4596176.679   4437042.986
10 0 59816  34902.000000  0   -2085670.631   4143120.358   5083279.490
10 0 59816  35022.000000  0   -1582280.133   3609117.748   5640080.043
10 0 59816  35142.000000  0   -1061236.484   3003124.936   6097687.688
10 0 59816  35262.000000  0    -532813.365   2335524.576   6448094.861
10 0 59816  35382.000000  0      -7213.535   1617943.100   6685176.517
10 0 59816  35502.000000  0     505627.519    863045.388   6804792.196
10 0 59816  35622.000000  0     996228.779     84309.777   6804852.936
10 0 59816  35742.000000  0    1455737.782   -704211.444   6685355.703
10 0 59816  35862.000000  0    1876089.833  -1488145.193   6448384.262
10 0 59816  35982.000000  0    2250149.730  -2253058.680   6098075.397
10 0 59816  36102.000000  0    2571834.309  -2984725.882   5640552.077
10 0 59816  36222.000000  0    2836213.486  -3669394.308   5083821.811
10 0 59816  36342.000000  0    3039587.274  -4294046.901   4437642.225
10 0 59816  36462.000000  0    3179538.940  -4846655.454   3713355.412
10 0 59816  36582.000000  0    3254961.642  -5316419.049   2923690.940
10 0 59816  36702.000000  0    3266058.343  -5693982.570   2082542.287
10 0 59816  36822.000000  0    3214313.654  -5971629.686   1204719.102
10 0 59816  36942.000000  0    3102439.276  -6143444.346    305681.173
10 0 59816  37062.000000  0    2934295.027  -6205438.628   -598740.155
10 0 59816  37182.000000  0    2714785.331  -6155643.383  -1492630.926
10 0 59816  37302.000000  0    2449733.673  -5994155.134  -2360283.332
10 0 59816  37422.000000  0    2145740.563  -5723143.363  -3186478.484
10 0 59816  37542.000000  0    1810025.925  -5346815.690  -3956759.197
10 0 59816  37662.000000  0    1450262.079  -4871340.857  -4657682.943
10 0 59816  37782.000000  0    1074403.229  -4304735.575  -5277051.965
10 0 59816  37902.000000  0     690513.846  -3656718.989  -5804118.438
10 0 59816  38022.000000  0     306599.562  -2938536.903  -6229761.417
10 0 59816  38142.000000  0     -69555.706  -2162760.573  -6546633.212
10 0 59816  38262.000000  0    -430543.210  -1343064.223  -6749275.007
10 0 59816  38382.000000  0    -769470.565   -493985.117  -6834201.615
10 0 59816  38502.000000  0   -1080089.007    369330.772  -6799954.646
10 0 59816  38622.000000  0   -1356905.650   1231392.330  -6647123.728
10 0 59816  38742.000000  0   -1595278.328   2076634.233  -6378337.330
10 0 59816  38862.000000  0   -1791491.946   2889690.830  -5998222.897
10 0 59816  38982.000000  0   -1942816.543   3655671.754  -5513336.753
10 0 59816  39102.000000  0   -2047544.747   4360433.403  -4932061.645
10 0 59816  39222.000000  0   -2105009.081   4990843.152  -4264473.569
10 0 59816  39342.000000  0   -2115577.765   5535030.167  -3522176.441
10 0 59816  39462.000000  0   -2080628.319   5982616.497  -2718108.224
99
